[{"OBJECT_NAME":"STARLINK-34558","OBJECT_ID":"2025-142AB","EPOCH":"2026-03-09T23:27:12.494880","MEAN_MOTION":14.98317882,"ECCENTRICITY":0.00022839,"INCLINATION":70.001,"RA_OF_ASC_NODE":313.7355,"ARG_OF_PERICENTER":257.8018,"MEAN_ANOMALY":102.2886,"EPHEMERIS_TYPE":0,"CLASSIFICATION_TYPE":"U","NORAD_CAT_ID":64721,"ELEMENT_SET_NO":999,"REV_AT_EPOCH":3950,"BSTAR":0.0004854361,"MEAN_MOTION_DOT":5.702e-5,"MEAN_MOTION_DDOT":0},{"OBJECT_NAME":"IKONOS 2","OBJECT_ID":"1999-051A","EPOCH":"2026-03-09T15:19:40.153152","MEAN_MOTION":14.96976552,"ECCENTRICITY":0.0006412,"INCLINATION":98.1486,"RA_OF_ASC_NODE":313.4587,"ARG_OF_PERICENTER":157.8343,"MEAN_ANOMALY":202.3156,"EPHEMERIS_TYPE":0,"CLASSIFICATION_TYPE":"U","NORAD_CAT_ID":25919,"ELEMENT_SET_NO":999,"REV_AT_EPOCH":42402,"BSTAR":0.00024901,"MEAN_MOTION_DOT":2.801e-5,"MEAN_MOTION_DDOT":0}]
